{"type": "FeatureCollection", "features": [ {"type": "Feature", "properties": {"norad_id": 38552, "name": "METEOSAT-10 (MSG-3)", "group": "weather", "lat": -1.9650723684889817, "lon": -91.12486970141386, "alt_km": 35784.70764825926, "timestamp": "2025-12-25T11:37:44.064703+00:00", "meta": {"OBJECT_NAME": "METEOSAT-10 (MSG-3)", "OBJECT_ID": "2012-035B", "EPOCH": "2025-12-24T21:39:36.881280", "MEAN_MOTION": 1.0026661, "ECCENTRICITY": 0.0001454, "INCLINATION": 4.2554, "RA_OF_ASC_NODE": 61.689, "ARG_OF_PERICENTER": 267.49, "MEAN_ANOMALY": 89.6857, "EPHEMERIS_TYPE": 0, "CLASSIFICATION_TYPE": "U", "NORAD_CAT_ID": 38552, "ELEMENT_SET_NO": 999, "REV_AT_EPOCH": 4910, "BSTAR": 0, "MEAN_MOTION_DOT": 1.4e-07, "MEAN_MOTION_DDOT": 0}, "tle": {"line1": "1 38552U 12035B   25358.90251020  .00000014  00000+0  00000+0 0  9999", "line2": "2 38552   4.2554  61.6890 0001454 267.4900  89.6857  1.00266610 49106"}}, "geometry": {"type": "Point", "coordinates": [-91.12486970141386, -1.9650723684889817]}}, {"type": "Feature", "properties": {"norad_id": 38771, "name": "METOP-B", "group": "weather", "lat": 70.84796585135882, "lon": -104.68532678946369, "alt_km": 811.3859695633901, "timestamp": "2025-12-25T11:37:44.064714+00:00", "meta": {"OBJECT_NAME": "METOP-B", "OBJECT_ID": "2012-049A", "EPOCH": "2025-12-25T02:40:47.582976", "MEAN_MOTION": 14.21412956, "ECCENTRICITY": 0.0003269, "INCLINATION": 98.6781, "RA_OF_ASC_NODE": 48.8597, "ARG_OF_PERICENTER": 118.3818, "MEAN_ANOMALY": 241.769, "EPHEMERIS_TYPE": 0, "CLASSIFICATION_TYPE": "U", "NORAD_CAT_ID": 38771, "ELEMENT_SET_NO": 999, "REV_AT_EPOCH": 68853, "BSTAR": 8.0105e-05, "MEAN_MOTION_DOT": 1.32e-06, "MEAN_MOTION_DDOT": 0}, "tle": {"line1": "1 38771U 12049A   25359.11166184  .00000132  00000+0  80105-4 0  9997", "line2": "2 38771  98.6781  48.8597 0003269 118.3818 241.7690 14.21412956688532"}}, "geometry": {"type": "Point", "coordinates": [-104.68532678946369, 70.84796585135882]}}, {"type": "Feature", "properties": {"norad_id": 39216, "name": "INSAT-3D", "group": "weather", "lat": -1.0648275853461917, "lon": 38.23424774793107, "alt_km": 35792.96470621493, "timestamp": "2025-12-25T11:37:44.064727+00:00", "meta": {"OBJECT_NAME": "INSAT-3D", "OBJECT_ID": "2013-038B", "EPOCH": "2025-12-25T01:49:38.586720", "MEAN_MOTION": 1.00274291, "ECCENTRICITY": 0.0001906, "INCLINATION": 1.4749, "RA_OF_ASC_NODE": 84.8578, "ARG_OF_PERICENTER": 156.5491, "MEAN_ANOMALY": 9.3857, "EPHEMERIS_TYPE": 0, "CLASSIFICATION_TYPE": "U", "NORAD_CAT_ID": 39216, "ELEMENT_SET_NO": 999, "REV_AT_EPOCH": 4533, "BSTAR": 0, "MEAN_MOTION_DOT": -3.18e-06, "MEAN_MOTION_DDOT": 0}, "tle": {"line1": "1 39216U 13038B   25359.07614105 -.00000318  00000+0  00000+0 0  9995", "line2": "2 39216   1.4749  84.8578 0001906 156.5491   9.3857  1.00274291 45338"}}, "geometry": {"type": "Point", "coordinates": [38.23424774793107, -1.0648275853461917]}}, {"type": "Feature", "properties": {"norad_id": 39260, "name": "FENGYUN 3C", "group": "weather", "lat": 81.2867604737856, "lon": -126.75137180349468, "alt_km": 828.2903376847262, "timestamp": "2025-12-25T11:37:44.064738+00:00", "meta": {"OBJECT_NAME": "FENGYUN 3C", "OBJECT_ID": "2013-052A", "EPOCH": "2025-12-25T04:24:38.206656", "MEAN_MOTION": 14.15699993, "ECCENTRICITY": 0.0014978, "INCLINATION": 98.4779, "RA_OF_ASC_NODE": 336.2563, "ARG_OF_PERICENTER": 160.1629, "MEAN_ANOMALY": 200.0131, "EPHEMERIS_TYPE": 0, "CLASSIFICATION_TYPE": "U", "NORAD_CAT_ID": 39260, "ELEMENT_SET_NO": 999, "REV_AT_EPOCH": 63394, "BSTAR": 8.1316e-05, "MEAN_MOTION_DOT": 1.18e-06, "MEAN_MOTION_DDOT": 0}, "tle": {"line1": "1 39260U 13052A   25359.18377554  .00000118  00000+0  81316-4 0  9997", "line2": "2 39260  98.4779 336.2563 0014978 160.1629 200.0131 14.15699993633946"}}, "geometry": {"type": "Point", "coordinates": [-126.75137180349468, 81.2867604737856]}}, {"type": "Feature", "properties": {"norad_id": 40069, "name": "METEOR-M 2", "group": "weather", "lat": -25.52759746059995, "lon": -19.327605125592743, "alt_km": 830.1286186089337, "timestamp": "2025-12-25T11:37:44.064748+00:00", "meta": {"OBJECT_NAME": "METEOR-M 2", "OBJECT_ID": "2014-037A", "EPOCH": "2025-12-25T03:18:11.060928", "MEAN_MOTION": 14.21392091, "ECCENTRICITY": 0.0005633, "INCLINATION": 98.4918, "RA_OF_ASC_NODE": 336.2473, "ARG_OF_PERICENTER": 171.1956, "MEAN_ANOMALY": 188.9321, "EPHEMERIS_TYPE": 0, "CLASSIFICATION_TYPE": "U", "NORAD_CAT_ID": 40069, "ELEMENT_SET_NO": 999, "REV_AT_EPOCH": 59459, "BSTAR": 0.00024852, "MEAN_MOTION_DOT": 5.01e-06, "MEAN_MOTION_DDOT": 0}, "tle": {"line1": "1 40069U 14037A   25359.13762802  .00000501  00000+0  24852-3 0  9996", "line2": "2 40069  98.4918 336.2473 0005633 171.1956 188.9321 14.21392091594591"}}, "geometry": {"type": "Point", "coordinates": [-19.327605125592743, -25.52759746059995]}}, {"type": "Feature", "properties": {"norad_id": 40267, "name": "HIMAWARI-8", "group": "weather", "lat": 0.011085879259546868, "lon": 49.348938945298485, "alt_km": 35787.25416788267, "timestamp": "2025-12-25T11:37:44.064784+00:00", "meta": {"OBJECT_NAME": "HIMAWARI-8", "OBJECT_ID": "2014-060A", "EPOCH": "2025-12-24T22:19:40.543968", "MEAN_MOTION": 1.00271352, "ECCENTRICITY": 9.3e-05, "INCLINATION": 0.0432, "RA_OF_ASC_NODE": 200.5414, "ARG_OF_PERICENTER": 104.3876, "MEAN_ANOMALY": 264.3563, "EPHEMERIS_TYPE": 0, "CLASSIFICATION_TYPE": "U", "NORAD_CAT_ID": 40267, "ELEMENT_SET_NO": 999, "REV_AT_EPOCH": 4101, "BSTAR": 0, "MEAN_MOTION_DOT": -2.54e-06, "MEAN_MOTION_DDOT": 0}, "tle": {"line1": "1 40267U 14060A   25358.93033037 -.00000254  00000+0  00000+0 0  9991", "line2": "2 40267   0.0432 200.5414 0000930 104.3876 264.3563  1.00271352 41013"}}, "geometry": {"type": "Point", "coordinates": [49.348938945298485, 0.011085879259546868]}}, {"type": "Feature", "properties": {"norad_id": 40367, "name": "FENGYUN 2G", "group": "weather", "lat": -4.789043387686672, "lon": 8.02599878859846, "alt_km": 35787.42895258365, "timestamp": "2025-12-25T11:37:44.064798+00:00", "meta": {"OBJECT_NAME": "FENGYUN 2G", "OBJECT_ID": "2014-090A", "EPOCH": "2025-12-25T01:33:21.992832", "MEAN_MOTION": 1.00282434, "ECCENTRICITY": 0.000167, "INCLINATION": 5.1966, "RA_OF_ASC_NODE": 74.9437, "ARG_OF_PERICENTER": 171.6176, "MEAN_ANOMALY": 329.8444, "EPHEMERIS_TYPE": 0, "CLASSIFICATION_TYPE": "U", "NORAD_CAT_ID": 40367, "ELEMENT_SET_NO": 999, "REV_AT_EPOCH": 4025, "BSTAR": 0, "MEAN_MOTION_DOT": -2.82e-06, "MEAN_MOTION_DDOT": 0}, "tle": {"line1": "1 40367U 14090A   25359.06483788 -.00000282  00000+0  00000+0 0  9993", "line2": "2 40367   5.1966  74.9437 0001670 171.6176 329.8444  1.00282434 40255"}}, "geometry": {"type": "Point", "coordinates": [8.02599878859846, -4.789043387686672]}}, {"type": "Feature", "properties": {"norad_id": 40732, "name": "METEOSAT-11 (MSG-4)", "group": "weather", "lat": -1.2283040470062783, "lon": -82.16215198845835, "alt_km": 35785.24365491998, "timestamp": "2025-12-25T11:37:44.064811+00:00", "meta": {"OBJECT_NAME": "METEOSAT-11 (MSG-4)", "OBJECT_ID": "2015-034A", "EPOCH": "2025-12-24T23:24:56.790720", "MEAN_MOTION": 1.00271323, "ECCENTRICITY": 7.13e-05, "INCLINATION": 2.7671, "RA_OF_ASC_NODE": 71.9685, "ARG_OF_PERICENTER": 137.0347, "MEAN_ANOMALY": 245.1596, "EPHEMERIS_TYPE": 0, "CLASSIFICATION_TYPE": "U", "NORAD_CAT_ID": 40732, "ELEMENT_SET_NO": 999, "REV_AT_EPOCH": 547, "BSTAR": 0, "MEAN_MOTION_DOT": 8.1e-07, "MEAN_MOTION_DDOT": 0}, "tle": {"line1": "1 40732U 15034A   25358.97565730  .00000081  00000+0  00000+0 0  9991", "line2": "2 40732   2.7671  71.9685 0000713 137.0347 245.1596  1.00271323  5470"}}, "geometry": {"type": "Point", "coordinates": [-82.16215198845835, -1.2283040470062783]}}, {"type": "Feature", "properties": {"norad_id": 41105, "name": "ELEKTRO-L 2", "group": "weather", "lat": -0.17876856456554482, "lon": -105.81888199247277, "alt_km": 35772.65376502007, "timestamp": "2025-12-25T11:37:44.064824+00:00", "meta": {"OBJECT_NAME": "ELEKTRO-L 2", "OBJECT_ID": "2015-074A", "EPOCH": "2025-12-24T23:18:12.436992", "MEAN_MOTION": 1.0027204, "ECCENTRICITY": 0.000354, "INCLINATION": 6.2545, "RA_OF_ASC_NODE": 72.6824, "ARG_OF_PERICENTER": 208.1447, "MEAN_ANOMALY": 147.994, "EPHEMERIS_TYPE": 0, "CLASSIFICATION_TYPE": "U", "NORAD_CAT_ID": 41105, "ELEMENT_SET_NO": 999, "REV_AT_EPOCH": 3675, "BSTAR": 0, "MEAN_MOTION_DOT": -9.8e-07, "MEAN_MOTION_DDOT": 0}, "tle": {"line1": "1 41105U 15074A   25358.97097728 -.00000098  00000+0  00000+0 0  9996", "line2": "2 41105   6.2545  72.6824 0003540 208.1447 147.9940  1.00272040 36753"}}, "geometry": {"type": "Point", "coordinates": [-105.81888199247277, -0.17876856456554482]}}, {"type": "Feature", "properties": {"norad_id": 41752, "name": "INSAT-3DR", "group": "weather", "lat": -0.12706318814200562, "lon": -17.18534585083731, "alt_km": 35766.3308694033, "timestamp": "2025-12-25T11:37:44.064837+00:00", "meta": {"OBJECT_NAME": "INSAT-3DR", "OBJECT_ID": "2016-054A", "EPOCH": "2025-12-24T15:09:51.705216", "MEAN_MOTION": 1.00271379, "ECCENTRICITY": 0.00142635, "INCLINATION": 0.1198, "RA_OF_ASC_NODE": 86.2568, "ARG_OF_PERICENTER": 185.6475, "MEAN_ANOMALY": 122.9543, "EPHEMERIS_TYPE": 0, "CLASSIFICATION_TYPE": "U", "NORAD_CAT_ID": 41752, "ELEMENT_SET_NO": 999, "REV_AT_EPOCH": 3406, "BSTAR": 0, "MEAN_MOTION_DOT": -5.6e-07, "MEAN_MOTION_DDOT": 0}, "tle": {"line1": "1 41752U 16054A   25358.63184844 -.00000056  00000+0  00000+0 0  9996", "line2": "2 41752   0.1198  86.2568 0014263 185.6475 122.9543  1.00271379 34066"}}, "geometry": {"type": "Point", "coordinates": [-17.18534585083731, -0.12706318814200562]}}]}